[{"OBJECT_NAME":"ION SCV-015","OBJECT_ID":"2023-185H","EPOCH":"2026-03-09T22:36:51.209568","MEAN_MOTION":15.3163624,"ECCENTRICITY":0.00109059,"INCLINATION":97.5772,"RA_OF_ASC_NODE":155.3582,"ARG_OF_PERICENTER":92.3805,"MEAN_ANOMALY":267.8685,"EPHEMERIS_TYPE":0,"CLASSIFICATION_TYPE":"U","NORAD_CAT_ID":58469,"ELEMENT_SET_NO":999,"REV_AT_EPOCH":12588,"BSTAR":0.00030895808,"MEAN_MOTION_DOT":9.376e-5,"MEAN_MOTION_DDOT":0},{"OBJECT_NAME":"STARLINK-33662","OBJECT_ID":"2025-053W","EPOCH":"2026-03-09T11:39:41.068800","MEAN_MOTION":15.27593272,"ECCENTRICITY":0.00028474,"INCLINATION":43.0008,"RA_OF_ASC_NODE":242.8071,"ARG_OF_PERICENTER":285.1887,"MEAN_ANOMALY":74.865,"EPHEMERIS_TYPE":0,"CLASSIFICATION_TYPE":"U","NORAD_CAT_ID":63285,"ELEMENT_SET_NO":999,"REV_AT_EPOCH":5616,"BSTAR":0.0012706608,"MEAN_MOTION_DOT":0.00034886,"MEAN_MOTION_DDOT":0}]
